IRIDIUM 155             
1 43573U 18061E   21083.15136884  .00000084  00000-0  22927-4 0  9996
2 43573  86.3963 135.3982 0002743  99.8797 260.2709 14.34219192139459
IRIDIUM 154             
1 43574U 18061F   21082.85327301  .00000080  00000-0  21463-4 0  9999
2 43574  86.3968 135.5654 0001984  95.4723 264.6700 14.34218099139454
IRIDIUM 163             
1 43575U 18061G   21082.90401399  .00000081  00000-0  21804-4 0  9996
2 43575  86.3965 135.5177 0002287  80.6572 279.4882 14.34218569139432
IRIDIUM 156             
1 43576U 18061H   21082.87864723  .00000081  00000-0  21727-4 0  9991
2 43576  86.3966 135.5333 0002567  89.8090 270.3400 14.34217303139425
IRIDIUM 164             
1 43577U 18061J   21083.13869917  .00000090  00000-0  25183-4 0  9992
2 43577  86.3966 135.4359 0002051  91.4342 268.7088 14.34217613139506
IRIDIUM 159             
1 43578U 18061K   21083.38605215  .00000087  00000-0  23948-4 0  9992
2 43578  86.3964 135.3095 0002086  94.3955 265.7479 14.34217508139505
IRIDIUM 180             
1 43922U 19002A   21082.89716928  .00000094  00000-0  26378-4 0  9998
2 43922  86.3933  72.3263 0001365  68.3484 291.7857 14.34217841115040
IRIDIUM 176             
1 43923U 19002B   21082.90710964  .00000140  00000-0  18298-4 0  9999
2 43923  86.6068  72.3537 0002239  90.5324 269.6149 14.72251674118043
IRIDIUM 168             
1 43924U 19002C   21082.89083679  .00000088  00000-0  24399-4 0  9994
2 43924  86.3936  72.3522 0001924  88.4016 271.7400 14.34216822115026
IRIDIUM 173             
1 43925U 19002D   21082.87814895  .00000096  00000-0  27159-4 0  9991
2 43925  86.3933  72.3241 0002010  86.4487 273.6939 14.34217588115005
IRIDIUM 169             
1 43926U 19002E   21082.79015347  .00000088  00000-0  22279-4 0  9997
2 43926  86.4176 103.9831 0006399 135.5348 224.6365 14.38609475115427
IRIDIUM 172             
1 43927U 19002F   21082.87179187  .00000092  00000-0  25931-4 0  9993
2 43927  86.3933  72.3288 0001918  85.4527 274.6888 14.34216973115010
IRIDIUM 175             
1 43928U 19002G   21083.37669877  .00000133  00000-0  17174-4 0  9996
2 43928  86.6053  71.9938 0002651  75.4889 284.6622 14.72252296118109
IRIDIUM 171             
1 43929U 19002H   21082.92253660  .00000093  00000-0  26141-4 0  9995
2 43929  86.3942  72.4015 0001933  89.1653 270.9764 14.34217918115011
IRIDIUM 170             
1 43930U 19002J   21082.70936028  .00000141  00000-0  18436-4 0  9991
2 43930  86.6068  72.4429 0002314  84.1151 276.0329 14.72251828118024
IRIDIUM 167             
1 43931U 19002K   21083.33479604  .00000090  00000-0  25095-4 0  9996
2 43931  86.3934  72.1406 0001443  78.2725 281.8633 14.34218776115076
